STARLINK-36068          
1 66845U 25280AA  25364.58335648 -.02088256  00000+0 -50623-1 0  9997
2 66845  70.0004 149.5084 0003619 273.1723  97.8991 15.44465511  5764
STARLINK-36055          
1 66846U 25280AB  25364.58335648 -.02069820  00000+0 -63102-1 0  9990
2 66846  69.9996 149.5856 0003349 268.2472  35.9028 15.37576939  5768
STARLINK-36061          
1 66847U 25280AC  25364.58335648 -.02098276  00000+0 -62523-1 0  9994
2 66847  69.9999 149.5728 0003564 270.9759  43.6745 15.38326512  5715
STARLINK-36091          
1 66848U 25281A   25364.35756693  .00105643  00000+0  17790-2 0  9998
2 66848  43.0029  16.6331 0002963 261.7172  98.3353 15.50629761  5567
STARLINK-36102          
1 66849U 25281B   25364.42165018  .00111967  00000+0  18867-2 0  9994
2 66849  42.9976  16.2506 0000428 229.5769 130.5054 15.50585664  5576
STARLINK-36105          
1 66850U 25281C   25364.42130169  .00103341  00000+0  17422-2 0  9998
2 66850  43.0021  16.2509 0002353 278.3078  81.7516 15.50610309  5573
STARLINK-36094          
1 66851U 25281D   25364.58335648  .00132700  00000+0  22367-2 0  9990
2 66851  43.0006  15.2978 0001621 273.4428 274.1918 15.50490306  4248
STARLINK-35992          
1 66852U 25281E   25364.42062290  .00108619  00000+0  18302-2 0  9990
2 66852  43.0011  16.2453 0001151 328.9819  31.0973 15.50602299  5576
STARLINK-35986          
1 66853U 25281F   25364.35585872  .00130148  00000+0  21870-2 0  9995
2 66853  43.0014  16.6182 0001315 284.2238  75.8476 15.50586459  5566
STARLINK-36087          
1 66854U 25281G   25364.41992518  .00104674  00000+0  17646-2 0  9993
2 66854  43.0007  16.2394 0003013 256.1541 103.8984 15.50603609  5576
STARLINK-36090          
1 66855U 25281H   25364.41959167  .00108536  00000+0  18291-2 0  9995
2 66855  43.0006  16.2358 0000348 291.2482  68.8341 15.50598839  5573
STARLINK-36072          
1 66856U 25281J   25364.41924414  .00113105  00000+0  19044-2 0  9998
2 66856  43.0013  16.2324 0001909 282.7354  77.3293 15.50603183  5572
